{"type": "FeatureCollection", "features": [ {"type": "Feature", "properties": {"norad_id": 38208, "name": "COSMOS 2251 DEB", "group": "cosmos-2251-debris", "lat": -20.39310518836522, "lon": 59.946681020109125, "alt_km": 622.4474149600028, "timestamp": "2025-12-19T04:59:48.704992+00:00", "meta": {"OBJECT_NAME": "COSMOS 2251 DEB", "OBJECT_ID": "1993-036BSY", "EPOCH": "2025-12-16T00:13:39.722592", "MEAN_MOTION": 14.84023361, "ECCENTRICITY": 0.00017369, "INCLINATION": 74.0064, "RA_OF_ASC_NODE": 72.4172, "ARG_OF_PERICENTER": 150.2716, "MEAN_ANOMALY": 26.1687, "EPHEMERIS_TYPE": 0, "CLASSIFICATION_TYPE": "U", "NORAD_CAT_ID": 38208, "ELEMENT_SET_NO": 999, "REV_AT_EPOCH": 71207, "BSTAR": 0.0016436813, "MEAN_MOTION_DOT": 0.00013687, "MEAN_MOTION_DDOT": 0}, "tle": {"line1": "1 38208U 93036BSY 25350.00948753  .00013687  00000+0  16437-2 0  9990", "line2": "2 38208  74.0064  72.4172 0001736 150.2716  26.1687 14.84023361712075"}}, "geometry": {"type": "Point", "coordinates": [59.946681020109125, -20.39310518836522]}}, {"type": "Feature", "properties": {"norad_id": 38212, "name": "COSMOS 2251 DEB", "group": "cosmos-2251-debris", "lat": 35.55814771568964, "lon": -127.87783490401327, "alt_km": 570.8563040522231, "timestamp": "2025-12-19T04:59:48.705002+00:00", "meta": {"OBJECT_NAME": "COSMOS 2251 DEB", "OBJECT_ID": "1993-036BTC", "EPOCH": "2025-12-16T22:44:21.570432", "MEAN_MOTION": 14.77712349, "ECCENTRICITY": 0.00922486, "INCLINATION": 74.0525, "RA_OF_ASC_NODE": 68.3479, "ARG_OF_PERICENTER": 134.0711, "MEAN_ANOMALY": 226.8108, "EPHEMERIS_TYPE": 0, "CLASSIFICATION_TYPE": "U", "NORAD_CAT_ID": 38212, "ELEMENT_SET_NO": 999, "REV_AT_EPOCH": 81372, "BSTAR": 0.00029648241, "MEAN_MOTION_DOT": 2.245e-05, "MEAN_MOTION_DDOT": 0}, "tle": {"line1": "1 38212U 93036BTC 25350.94747188  .00002245  00000+0  29648-3 0  9994", "line2": "2 38212  74.0525  68.3479 0092248 134.0711 226.8108 14.77712349813723"}}, "geometry": {"type": "Point", "coordinates": [-127.87783490401327, 35.55814771568964]}}, {"type": "Feature", "properties": {"norad_id": 38220, "name": "COSMOS 2251 DEB", "group": "cosmos-2251-debris", "lat": -64.66775023308591, "lon": 18.00724750166556, "alt_km": 595.0471716363736, "timestamp": "2025-12-19T04:59:48.705015+00:00", "meta": {"OBJECT_NAME": "COSMOS 2251 DEB", "OBJECT_ID": "1993-036BTL", "EPOCH": "2025-12-17T11:30:14.878368", "MEAN_MOTION": 14.9320096, "ECCENTRICITY": 0.00051577, "INCLINATION": 74.0158, "RA_OF_ASC_NODE": 58.7526, "ARG_OF_PERICENTER": 31.4503, "MEAN_ANOMALY": 328.6988, "EPHEMERIS_TYPE": 0, "CLASSIFICATION_TYPE": "U", "NORAD_CAT_ID": 38220, "ELEMENT_SET_NO": 999, "REV_AT_EPOCH": 71441, "BSTAR": 0.0021815417, "MEAN_MOTION_DOT": 0.00022841, "MEAN_MOTION_DDOT": 0}, "tle": {"line1": "1 38220U 93036BTL 25351.47933887  .00022841  00000+0  21815-2 0  9996", "line2": "2 38220  74.0158  58.7526 0005157  31.4503 328.6988 14.93200960714414"}}, "geometry": {"type": "Point", "coordinates": [18.00724750166556, -64.66775023308591]}}, {"type": "Feature", "properties": {"norad_id": 38479, "name": "COSMOS 2251 DEB", "group": "cosmos-2251-debris", "lat": -41.902185291257915, "lon": 7.255410841800858, "alt_km": 736.076431643035, "timestamp": "2025-12-19T04:59:48.705025+00:00", "meta": {"OBJECT_NAME": "COSMOS 2251 DEB", "OBJECT_ID": "1993-036BTP", "EPOCH": "2025-12-13T19:29:32.997408", "MEAN_MOTION": 14.3831318, "ECCENTRICITY": 0.0084157, "INCLINATION": 74.007, "RA_OF_ASC_NODE": 182.3013, "ARG_OF_PERICENTER": 291.0961, "MEAN_ANOMALY": 83.9532, "EPHEMERIS_TYPE": 0, "CLASSIFICATION_TYPE": "U", "NORAD_CAT_ID": 38479, "ELEMENT_SET_NO": 999, "REV_AT_EPOCH": 64703, "BSTAR": 0.0021939338, "MEAN_MOTION_DOT": 6.938e-05, "MEAN_MOTION_DDOT": 0}, "tle": {"line1": "1 38479U 93036BTP 25347.81218747  .00006938  00000+0  21939-2 0  9992", "line2": "2 38479  74.0070 182.3013 0084157 291.0961  83.9532 14.38313180647034"}}, "geometry": {"type": "Point", "coordinates": [7.255410841800858, -41.902185291257915]}}, {"type": "Feature", "properties": {"norad_id": 38481, "name": "COSMOS 2251 DEB", "group": "cosmos-2251-debris", "lat": -13.669866528387308, "lon": -179.6030631501536, "alt_km": 945.4589265661925, "timestamp": "2025-12-19T04:59:48.705035+00:00", "meta": {"OBJECT_NAME": "COSMOS 2251 DEB", "OBJECT_ID": "1993-036BTR", "EPOCH": "2025-12-17T17:37:11.726400", "MEAN_MOTION": 13.94852214, "ECCENTRICITY": 0.02348213, "INCLINATION": 73.9324, "RA_OF_ASC_NODE": 358.9239, "ARG_OF_PERICENTER": 298.2644, "MEAN_ANOMALY": 59.4964, "EPHEMERIS_TYPE": 0, "CLASSIFICATION_TYPE": "U", "NORAD_CAT_ID": 38481, "ELEMENT_SET_NO": 999, "REV_AT_EPOCH": 59130, "BSTAR": 0.0012605173, "MEAN_MOTION_DOT": 2.103e-05, "MEAN_MOTION_DDOT": 0}, "tle": {"line1": "1 38481U 93036BTR 25351.73416350  .00002103  00000+0  12605-2 0  9991", "line2": "2 38481  73.9324 358.9239 0234821 298.2644  59.4964 13.94852214591302"}}, "geometry": {"type": "Point", "coordinates": [-179.6030631501536, -13.669866528387308]}}, {"type": "Feature", "properties": {"norad_id": 38483, "name": "COSMOS 2251 DEB", "group": "cosmos-2251-debris", "lat": 7.601505808908595, "lon": 2.3298923897491246, "alt_km": 804.1824073250937, "timestamp": "2025-12-19T04:59:48.705045+00:00", "meta": {"OBJECT_NAME": "COSMOS 2251 DEB", "OBJECT_ID": "1993-036BTT", "EPOCH": "2025-12-12T08:16:48.530496", "MEAN_MOTION": 14.28787654, "ECCENTRICITY": 0.01107994, "INCLINATION": 74.262, "RA_OF_ASC_NODE": 12.4521, "ARG_OF_PERICENTER": 118.0167, "MEAN_ANOMALY": 243.2246, "EPHEMERIS_TYPE": 0, "CLASSIFICATION_TYPE": "U", "NORAD_CAT_ID": 38483, "ELEMENT_SET_NO": 999, "REV_AT_EPOCH": 63472, "BSTAR": 0.0012977102, "MEAN_MOTION_DOT": 3.471e-05, "MEAN_MOTION_DDOT": 0}, "tle": {"line1": "1 38483U 93036BTT 25346.34500614  .00003471  00000+0  12977-2 0  9992", "line2": "2 38483  74.2620  12.4521 0110799 118.0167 243.2246 14.28787654634722"}}, "geometry": {"type": "Point", "coordinates": [2.3298923897491246, 7.601505808908595]}}, {"type": "Feature", "properties": {"norad_id": 38486, "name": "COSMOS 2251 DEB", "group": "cosmos-2251-debris", "lat": -50.80849792201351, "lon": 171.4900257793352, "alt_km": 638.0535886883308, "timestamp": "2025-12-19T04:59:48.705055+00:00", "meta": {"OBJECT_NAME": "COSMOS 2251 DEB", "OBJECT_ID": "1993-036BTW", "EPOCH": "2025-12-16T20:16:12.499104", "MEAN_MOTION": 14.73366046, "ECCENTRICITY": 0.00303976, "INCLINATION": 73.9413, "RA_OF_ASC_NODE": 196.8105, "ARG_OF_PERICENTER": 340.5168, "MEAN_ANOMALY": 34.0397, "EPHEMERIS_TYPE": 0, "CLASSIFICATION_TYPE": "U", "NORAD_CAT_ID": 38486, "ELEMENT_SET_NO": 999, "REV_AT_EPOCH": 75495, "BSTAR": 0.0017008864, "MEAN_MOTION_DOT": 0.00011084, "MEAN_MOTION_DDOT": 0}, "tle": {"line1": "1 38486U 93036BTW 25350.84458911  .00011084  00000+0  17009-2 0  9997", "line2": "2 38486  73.9413 196.8105 0030397 340.5168  34.0397 14.73366046754953"}}, "geometry": {"type": "Point", "coordinates": [171.4900257793352, -50.80849792201351]}}, {"type": "Feature", "properties": {"norad_id": 38487, "name": "COSMOS 2251 DEB", "group": "cosmos-2251-debris", "lat": 31.22763035533717, "lon": 30.298579498555593, "alt_km": 523.983034429596, "timestamp": "2025-12-19T04:59:48.705078+00:00", "meta": {"OBJECT_NAME": "COSMOS 2251 DEB", "OBJECT_ID": "1993-036BTX", "EPOCH": "2025-12-18T08:17:15.140832", "MEAN_MOTION": 15.17739234, "ECCENTRICITY": 0.00209744, "INCLINATION": 73.9753, "RA_OF_ASC_NODE": 22.0718, "ARG_OF_PERICENTER": 194.1031, "MEAN_ANOMALY": 165.9582, "EPHEMERIS_TYPE": 0, "CLASSIFICATION_TYPE": "U", "NORAD_CAT_ID": 38487, "ELEMENT_SET_NO": 999, "REV_AT_EPOCH": 66885, "BSTAR": 0.0016984027, "MEAN_MOTION_DOT": 0.00034604, "MEAN_MOTION_DDOT": 0}, "tle": {"line1": "1 38487U 93036BTX 25352.34531413  .00034604  00000+0  16984-2 0  9998", "line2": "2 38487  73.9753  22.0718 0020974 194.1031 165.9582 15.17739234668858"}}, "geometry": {"type": "Point", "coordinates": [30.298579498555593, 31.22763035533717]}}, {"type": "Feature", "properties": {"norad_id": 39109, "name": "COSMOS 2251 DEB", "group": "cosmos-2251-debris", "lat": -52.76353389825785, "lon": -169.58608142378526, "alt_km": 624.1384049242306, "timestamp": "2025-12-19T04:59:48.705090+00:00", "meta": {"OBJECT_NAME": "COSMOS 2251 DEB", "OBJECT_ID": "1993-036BTY", "EPOCH": "2025-12-16T09:28:20.054784", "MEAN_MOTION": 14.70744531, "ECCENTRICITY": 0.00594106, "INCLINATION": 74.0429, "RA_OF_ASC_NODE": 217.9855, "ARG_OF_PERICENTER": 320.6122, "MEAN_ANOMALY": 213.0839, "EPHEMERIS_TYPE": 0, "CLASSIFICATION_TYPE": "U", "NORAD_CAT_ID": 39109, "ELEMENT_SET_NO": 999, "REV_AT_EPOCH": 65227, "BSTAR": 0.00033652687, "MEAN_MOTION_DOT": 2.076e-05, "MEAN_MOTION_DDOT": 0}, "tle": {"line1": "1 39109U 93036BTY 25350.39467656  .00002076  00000+0  33653-3 0  9991", "line2": "2 39109  74.0429 217.9855 0059410 320.6122 213.0839 14.70744531652276"}}, "geometry": {"type": "Point", "coordinates": [-169.58608142378526, -52.76353389825785]}}, {"type": "Feature", "properties": {"norad_id": 39110, "name": "COSMOS 2251 DEB", "group": "cosmos-2251-debris", "lat": 17.95133109427188, "lon": -136.48871342550464, "alt_km": 686.0738537639054, "timestamp": "2025-12-19T04:59:48.705107+00:00", "meta": {"OBJECT_NAME": "COSMOS 2251 DEB", "OBJECT_ID": "1993-036BTZ", "EPOCH": "2025-12-17T22:04:59.920608", "MEAN_MOTION": 14.72312711, "ECCENTRICITY": 0.00972569, "INCLINATION": 73.9594, "RA_OF_ASC_NODE": 51.3772, "ARG_OF_PERICENTER": 282.7235, "MEAN_ANOMALY": 255.0933, "EPHEMERIS_TYPE": 0, "CLASSIFICATION_TYPE": "U", "NORAD_CAT_ID": 39110, "ELEMENT_SET_NO": 999, "REV_AT_EPOCH": 62560, "BSTAR": 0.00028872963, "MEAN_MOTION_DOT": 1.929e-05, "MEAN_MOTION_DDOT": 0}, "tle": {"line1": "1 39110U 93036BTZ 25351.92013797  .00001929  00000+0  28873-3 0  9990", "line2": "2 39110  73.9594  51.3772 0097256 282.7235 255.0933 14.72312711625601"}}, "geometry": {"type": "Point", "coordinates": [-136.48871342550464, 17.95133109427188]}}]}